{
  "norad_id": 66424,
  "name": "STARLINK-35588",
  "history": [
    {
      "epoch": "2026-03-28T14:37:21.396288Z",
      "apogee_km": 483.6418574006593,
      "perigee_km": 482.421941570331,
      "latitude_deg": 1.5335436093507068e-05,
      "longitude_deg": 122.2398000826466,
      "height_km": 482.8125838856906,
      "semi_major_axis_km": 6861.168899485495,
      "eccentricity": 8.89e-05,
      "inclination_deg": 43.003,
      "raan_deg": 167.6062,
      "arg_perigee_deg": 269.6156,
      "mean_anomaly_deg": 90.4594,
      "mean_motion_rev_day": 15.27585743
    }
  ]
}