{"fetched_at":"2026-03-29T02:12:04Z","count":15717,"tles":[{"name":"STARLINK-35588","line1":"1 66424U 25259C   26087.60927542  .00012167  00000+0  45084-3 0  9993","line2":"2 66424  43.0030 167.6062 0000889 269.6156  90.4594 15.27585743 22385","category":"Starlink"}]}